{
  "norad_id": 66925,
  "name": "STARLINK-35945",
  "history": [
    {
      "epoch": "2026-03-28T21:07:46.452864Z",
      "apogee_km": 475.86576487012735,
      "perigee_km": 474.47742161530914,
      "latitude_deg": -5.0679634889482506e-05,
      "longitude_deg": 126.1645121052828,
      "height_km": 476.036386484581,
      "semi_major_axis_km": 6853.308593242718,
      "eccentricity": 0.00010129,
      "inclination_deg": 53.1582,
      "raan_deg": 269.4026,
      "arg_perigee_deg": 87.2379,
      "mean_anomaly_deg": 272.8737,
      "mean_motion_rev_day": 15.30214561
    },
    {
      "epoch": "2026-03-29T04:58:02.531136Z",
      "apogee_km": 476.0775348112238,
      "perigee_km": 474.30115262293293,
      "latitude_deg": -1.2692128796674567e-05,
      "longitude_deg": 6.7552606796422445,
      "height_km": 476.11423027914276,
      "semi_major_axis_km": 6853.326343717078,
      "eccentricity": 0.0001296,
      "inclination_deg": 53.1588,
      "raan_deg": 267.8822,
      "arg_perigee_deg": 91.7401,
      "mean_anomaly_deg": 268.3748,
      "mean_motion_rev_day": 15.30208616
    },
    {
      "epoch": "2026-03-30T04:28:50.681280Z",
      "apogee_km": 476.4485634574876,
      "perigee_km": 473.93681812581235,
      "latitude_deg": 2.643252070285116e-05,
      "longitude_deg": 8.538104850125537,
      "height_km": 475.7933847639235,
      "semi_major_axis_km": 6853.329690791649,
      "eccentricity": 0.00018325,
      "inclination_deg": 53.1579,
      "raan_deg": 263.3313,
      "arg_perigee_deg": 76.3468,
      "mean_anomaly_deg": 283.7737,
      "mean_motion_rev_day": 15.30207495
    },
    {
      "epoch": "2026-03-30T10:45:03.447648Z",
      "apogee_km": 476.3527803530269,
      "perigee_km": 474.05115499412386,
      "latitude_deg": 3.480991198036251e-05,
      "longitude_deg": -86.98479029651232,
      "height_km": 475.95656462051926,
      "semi_major_axis_km": 6853.338967673575,
      "eccentricity": 0.00016792,
      "inclination_deg": 53.1555,
      "raan_deg": 262.1191,
      "arg_perigee_deg": 82.8901,
      "mean_anomaly_deg": 277.2291,
      "mean_motion_rev_day": 15.30204388
    },
    {
      "epoch": "2026-03-30T20:09:22.573440Z",
      "apogee_km": 475.8831713940581,
      "perigee_km": 474.5009919848635,
      "latitude_deg": 5.644685604135287e-05,
      "longitude_deg": 129.72837300869435,
      "height_km": 476.0032031377331,
      "semi_major_axis_km": 6853.3290816894605,
      "eccentricity": 0.00010084,
      "inclination_deg": 53.1572,
      "raan_deg": 260.2982,
      "arg_perigee_deg": 82.7668,
      "mean_anomaly_deg": 277.3448,
      "mean_motion_rev_day": 15.30207699
    },
    {
      "epoch": "2026-03-31T19:40:10.480800Z",
      "apogee_km": 475.82461575550406,
      "perigee_km": 474.6225363104686,
      "latitude_deg": -4.137806926967459e-05,
      "longitude_deg": 131.51123022184262,
      "height_km": 475.9077052337589,
      "semi_major_axis_km": 6853.3605760329865,
      "eccentricity": 8.77e-05,
      "inclination_deg": 53.1559,
      "raan_deg": 255.7464,
      "arg_perigee_deg": 69.1302,
      "mean_anomaly_deg": 290.9792,
      "mean_motion_rev_day": 15.30197151
    },
    {
      "epoch": "2026-04-01T20:45:00.785952Z",
      "apogee_km": 475.8609030796042,
      "perigee_km": 474.3463369025867,
      "latitude_deg": 2.2279216475527172e-05,
      "longitude_deg": 109.4195488776613,
      "height_km": 475.8830603050725,
      "semi_major_axis_km": 6853.240619991096,
      "eccentricity": 0.0001105,
      "inclination_deg": 53.1565,
      "raan_deg": 250.8943,
      "arg_perigee_deg": 80.9962,
      "mean_anomaly_deg": 279.1164,
      "mean_motion_rev_day": 15.30237327
    },
    {
      "epoch": "2026-04-02T20:15:48.603456Z",
      "apogee_km": 475.7506598242444,
      "perigee_km": 474.48623419427076,
      "latitude_deg": 1.2768845666250983e-05,
      "longitude_deg": 111.2031467421971,
      "height_km": 476.1265242858343,
      "semi_major_axis_km": 6853.255447009257,
      "eccentricity": 9.225e-05,
      "inclination_deg": 53.1579,
      "raan_deg": 246.3428,
      "arg_perigee_deg": 99.9954,
      "mean_anomaly_deg": 260.1151,
      "mean_motion_rev_day": 15.30232361
    },
    {
      "epoch": "2026-04-03T19:46:37.738560Z",
      "apogee_km": 475.94028464826715,
      "perigee_km": 474.55864193726757,
      "latitude_deg": 4.3521860304651515e-06,
      "longitude_deg": 112.98223968162524,
      "height_km": 476.10242666937415,
      "semi_major_axis_km": 6853.386463292767,
      "eccentricity": 0.0001008,
      "inclination_deg": 53.1587,
      "raan_deg": 241.7923,
      "arg_perigee_deg": 86.2381,
      "mean_anomaly_deg": 273.8735,
      "mean_motion_rev_day": 15.30188481
    },
    {
      "epoch": "2026-04-04T19:17:26.617920Z",
      "apogee_km": 475.82619028025965,
      "perigee_km": 474.5829941154343,
      "latitude_deg": 1.969125842814151e-06,
      "longitude_deg": 114.76290481035268,
      "height_km": 475.75734932473495,
      "semi_major_axis_km": 6853.341592197847,
      "eccentricity": 9.07e-05,
      "inclination_deg": 53.1592,
      "raan_deg": 237.2423,
      "arg_perigee_deg": 56.1848,
      "mean_anomaly_deg": 303.9239,
      "mean_motion_rev_day": 15.30203509
    },
    {
      "epoch": "2026-04-05T14:06:04.040928Z",
      "apogee_km": 475.90270861375757,
      "perigee_km": 474.4445982391344,
      "latitude_deg": 3.034760035985739e-05,
      "longitude_deg": -171.8072199698061,
      "height_km": 475.8662982557255,
      "semi_major_axis_km": 6853.310653426445,
      "eccentricity": 0.00010638,
      "inclination_deg": 53.1605,
      "raan_deg": 233.6006,
      "arg_perigee_deg": 73.6013,
      "mean_anomaly_deg": 286.5105,
      "mean_motion_rev_day": 15.30213871
    },
    {
      "epoch": "2026-04-05T18:48:13.482432Z",
      "apogee_km": 475.9154230120803,
      "perigee_km": 474.3985149249893,
      "latitude_deg": -2.3725167094728158e-05,
      "longitude_deg": 116.55026994426154,
      "height_km": 475.787292963597,
      "semi_major_axis_km": 6853.2939689685345,
      "eccentricity": 0.00011067,
      "inclination_deg": 53.1605,
      "raan_deg": 232.6906,
      "arg_perigee_deg": 69.2964,
      "mean_anomaly_deg": 290.8155,
      "mean_motion_rev_day": 15.30219459
    },
    {
      "epoch": "2026-04-07T14:41:42.919584Z",
      "apogee_km": 475.91472703395175,
      "perigee_km": 474.4782683328376,
      "latitude_deg": -2.5471404441879103e-05,
      "longitude_deg": 167.88144890157577,
      "height_km": 475.94995523296575,
      "semi_major_axis_km": 6853.333497683395,
      "eccentricity": 0.0001048,
      "inclination_deg": 53.1611,
      "raan_deg": 224.197,
      "arg_perigee_deg": 78.3467,
      "mean_anomaly_deg": 281.7651,
      "mean_motion_rev_day": 15.3020622
    },
    {
      "epoch": "2026-04-08T14:12:31.066272Z",
      "apogee_km": 476.107405425063,
      "perigee_km": 474.3142954934683,
      "latitude_deg": 2.9440908646074055e-05,
      "longitude_deg": 169.66531568692008,
      "height_km": 476.1191758280921,
      "semi_major_axis_km": 6853.347850459265,
      "eccentricity": 0.00013082,
      "inclination_deg": 53.1609,
      "raan_deg": 219.6471,
      "arg_perigee_deg": 90.6525,
      "mean_anomaly_deg": 269.4626,
      "mean_motion_rev_day": 15.30201413
    },
    {
      "epoch": "2026-04-09T12:09:15.719616Z",
      "apogee_km": 476.0122949182705,
      "perigee_km": 474.4195756961053,
      "latitude_deg": 2.068267996140402e-05,
      "longitude_deg": -164.67042856581787,
      "height_km": 476.25800317433277,
      "semi_major_axis_km": 6853.352935307188,
      "eccentricity": 0.0001162,
      "inclination_deg": 53.1612,
      "raan_deg": 215.3987,
      "arg_perigee_deg": 100.3955,
      "mean_anomaly_deg": 259.7177,
      "mean_motion_rev_day": 15.3019971
    },
    {
      "epoch": "2026-04-10T06:57:54.152640Z",
      "apogee_km": 476.37979571212145,
      "perigee_km": 473.96331911477864,
      "latitude_deg": 6.562943945572344e-06,
      "longitude_deg": -91.24010581884231,
      "height_km": 475.6316674805409,
      "semi_major_axis_km": 6853.30855741345,
      "eccentricity": 0.0001763,
      "inclination_deg": 53.1584,
      "raan_deg": 211.7617,
      "arg_perigee_deg": 68.7819,
      "mean_anomaly_deg": 291.337,
      "mean_motion_rev_day": 15.30214573
    },
    {
      "epoch": "2026-04-11T15:53:01.280832Z",
      "apogee_km": 475.7268639853619,
      "perigee_km": 474.7043437768616,
      "latitude_deg": 1.6001520134284247e-05,
      "longitude_deg": 127.25727690848942,
      "height_km": 476.20605450718415,
      "semi_major_axis_km": 6853.3526038811115,
      "eccentricity": 7.46e-05,
      "inclination_deg": 53.1574,
      "raan_deg": 205.3907,
      "arg_perigee_deg": 100.3603,
      "mean_anomaly_deg": 259.7482,
      "mean_motion_rev_day": 15.30199821
    },
    {
      "epoch": "2026-04-13T05:30:18.120096Z",
      "apogee_km": 475.6537236252125,
      "perigee_km": 474.86489770985554,
      "latitude_deg": -7.64584919455097e-06,
      "longitude_deg": -85.89115891981021,
      "height_km": 476.3017938810087,
      "semi_major_axis_km": 6853.396310667534,
      "eccentricity": 5.755e-05,
      "inclination_deg": 53.1557,
      "raan_deg": 198.1075,
      "arg_perigee_deg": 111.3994,
      "mean_anomaly_deg": 248.7068,
      "mean_motion_rev_day": 15.30185183
    },
    {
      "epoch": "2026-04-14T12:51:21.885408Z",
      "apogee_km": 475.7516523616414,
      "perigee_km": 474.6515544490212,
      "latitude_deg": -3.787360657494204e-05,
      "longitude_deg": 156.48508931630033,
      "height_km": 475.95699976963243,
      "semi_major_axis_km": 6853.338603405331,
      "eccentricity": 8.026e-05,
      "inclination_deg": 53.159,
      "raan_deg": 192.037,
      "arg_perigee_deg": 74.9051,
      "mean_anomaly_deg": 285.2038,
      "mean_motion_rev_day": 15.3020451
    },
    {
      "epoch": "2026-04-15T12:22:09.740064Z",
      "apogee_km": 475.5908185917042,
      "perigee_km": 474.8740932140072,
      "latitude_deg": 6.061769080344959e-05,
      "longitude_deg": 158.26771340523814,
      "height_km": 475.8990603739919,
      "semi_major_axis_km": 6853.369455902855,
      "eccentricity": 5.229e-05,
      "inclination_deg": 53.1574,
      "raan_deg": 187.4846,
      "arg_perigee_deg": 49.5861,
      "mean_anomaly_deg": 310.5186,
      "mean_motion_rev_day": 15.30194177
    },
    {
      "epoch": "2026-04-16T11:52:57.625824Z",
      "apogee_km": 475.86348415128487,
      "perigee_km": 474.5928702474321,
      "latitude_deg": 5.973915837806053e-06,
      "longitude_deg": 160.0559936120551,
      "height_km": 476.1235728275572,
      "semi_major_axis_km": 6853.365177199358,
      "eccentricity": 9.27e-05,
      "inclination_deg": 53.1587,
      "raan_deg": 182.9381,
      "arg_perigee_deg": 89.7295,
      "mean_anomaly_deg": 270.3812,
      "mean_motion_rev_day": 15.3019561
    },
    {
      "epoch": "2026-04-17T14:31:51.968640Z",
      "apogee_km": 475.898964868843,
      "perigee_km": 474.5779082196941,
      "latitude_deg": -1.5219276591171437e-05,
      "longitude_deg": 114.07583900435287,
      "height_km": 476.05083076089664,
      "semi_major_axis_km": 6853.375436544268,
      "eccentricity": 9.638e-05,
      "inclination_deg": 53.1594,
      "raan_deg": 177.7788,
      "arg_perigee_deg": 82.5153,
      "mean_anomaly_deg": 277.5957,
      "mean_motion_rev_day": 15.30192174
    }
  ]
}